OBJECT_NAME,OBJECT_ID,EPOCH,MEAN_MOTION,ECCENTRICITY,INCLINATION,RA_OF_ASC_NODE,ARG_OF_PERICENTER,MEAN_ANOMALY,EPHEMERIS_TYPE,CLASSIFICATION_TYPE,NORAD_CAT_ID,ELEMENT_SET_NO,REV_AT_EPOCH,BSTAR,MEAN_MOTION_DOT,MEAN_MOTION_DDOT
STARLINK-5132,2022-125AV,2026-06-03T07:29:16.202976,15.08835036,.00013994,53.1823,189.3675,94.2287,265.8865,0,U,54007,999,20239,.26307264E-4,.131E-5,0
STARLINK-5145,2022-125AW,2026-06-03T05:49:55.106688,15.08831400,.0001279,53.1829,179.6782,100.0819,260.0317,0,U,54008,999,20252,-.40625E-5,-.353E-5,0
STARLINK-5099,2022-125AX,2026-06-03T16:56:17.051424,15.08832280,.00014956,53.1815,187.5739,40.2898,319.8204,0,U,54009,999,20245,.8999292E-5,-.145E-5,0
STARLINK-5127,2022-125AY,2026-06-03T07:14:42.736992,15.08824990,.00012021,53.1811,179.3394,63.4094,296.7020,0,U,54010,999,20253,.10483867E-3,.138E-4,0
STARLINK-5124,2022-125AZ,2026-06-03T06:58:53.165568,15.08837015,.00011561,53.1821,179.9672,76.8800,283.2321,0,U,54011,999,20252,.52322303E-4,.545E-5,0
STARLINK-5126,2022-125BA,2026-06-03T14:18:40.470336,15.08837429,.0001104,53.1842,178.3276,94.8174,265.2944,0,U,54012,999,20257,.13658E-4,-.7E-6,0
STARLINK-5098,2022-125BB,2026-06-03T17:40:04.182528,15.08850760,.00024125,53.1856,177.7802,30.1169,329.9961,0,U,54013,999,20259,.22310566E-3,.3265E-4,0
STARLINK-5055,2022-125BD,2026-06-03T08:02:27.083616,15.08826802,.00012304,53.2158,179.5582,62.9963,297.1155,0,U,54015,999,20253,-.78695062E-4,-.154E-4,0
CENTISPACE-1 S5,2022-126A,2026-06-03T21:32:01.936896,14.62991305,.00140633,54.9992,266.1415,47.6444,312.5738,0,U,54020,999,19509,.23207579E-3,.1009E-4,0
CENTISPACE-1 S6,2022-126B,2026-06-03T21:12:45.493632,14.62273239,.00159094,54.9995,267.9986,47.1583,313.0745,0,U,54021,999,19505,.19126182E-3,.784E-5,0
OTB-3-GAZELLE,2022-127A,2026-06-03T12:50:52.764288,14.42669292,.00121371,98.3939,146.4479,226.2829,133.7356,0,U,54023,999,19239,.66775665E-4,.179E-5,0
GALAXY 33 (G-33),2022-128A,2026-06-03T16:23:46.161888,1.00272978,.00020563,0.0123,21.6992,53.4188,289.9794,0,U,54026,999,1360,0,.91E-6,0
GALAXY 34 (G-34),2022-128B,2026-06-03T16:25:01.042176,1.00275256,.00020939,0.0239,343.8859,100.1369,285.3811,0,U,54027,999,1377,0,0,0
ASO-S,2022-129A,2026-06-03T21:15:16.415424,14.52054904,.00153592,98.2747,160.1567,130.2455,230.0086,0,U,54029,999,19349,.74666497E-4,.258E-5,0
COSMOS 2559 [GLONASS-K],2022-130A,2026-05-31T23:22:06.833280,2.13101759,.00122204,64.2818,315.1401,176.8765,183.1177,0,U,54031,999,2834,0,-.61E-6,0
ANGOSAT 2,2022-131A,2026-06-03T13:42:55.162656,1.00272126,.0001675,0.0320,77.4861,43.8281,359.4453,0,U,54033,999,1334,0,.147E-5,0
HJ-2E,2022-132A,2026-06-03T22:34:29.714880,15.22104481,.00220846,97.3798,159.5580,59.3504,300.9906,0,U,54035,999,20240,.38773029E-3,.8872E-4,0
YAOGAN-36 02A,2022-133A,2026-06-02T11:56:07.755072,15.23217685,.002634,35.0057,212.1444,65.2478,295.0974,0,U,54042,999,20251,.70178309E-4,.1679E-4,0
YAOGAN-36 02B,2022-133B,2026-06-03T13:10:02.828640,15.32260490,.0004081,34.9953,197.2943,309.9153,50.1205,0,U,54043,999,20275,.31214E-3,.9954E-4,0
YAOGAN-36 02C,2022-133D,2026-06-03T10:45:34.528320,15.47731623,.00060414,34.9879,163.4242,103.7311,256.4084,0,U,54045,999,20309,.79233641E-3,.42495E-3,0
EUTELSAT HOTBIRD 13F,2022-134A,2026-06-03T22:13:26.863104,1.00271002,.00019798,0.0491,290.5613,76.3440,231.8477,0,U,54048,999,1324,0,.99E-6,0
STARLINK-5195,2022-136A,2026-06-03T15:02:15.113184,15.08019243,.00010503,53.2190,318.6084,94.6063,265.5049,0,U,54051,999,19981,.60747159E-4,.66E-5,0
STARLINK-5189,2022-136B,2026-06-03T15:24:53.266752,15.08863439,.00013172,53.1834,278.0517,120.2419,239.8703,0,U,54052,999,20038,-.81012091E-4,-.1578E-4,0
STARLINK-5176,2022-136C,2026-06-03T14:53:11.058432,15.08834156,.00012779,53.1833,318.5458,76.6170,283.4964,0,U,54053,999,19981,.8381975E-5,-.155E-5,0
STARLINK-5163,2022-136D,2026-06-03T14:42:33.638976,15.08843879,.00013339,53.2035,318.5109,95.4017,264.7127,0,U,54054,999,19981,.12125401E-4,-.95E-6,0
STARLINK-5158,2022-136E,2026-06-03T22:44:53.280960,15.08767331,.00019984,53.1829,317.0332,145.5867,214.5255,0,U,54055,999,19986,-.65194083E-3,-.10629E-3,0
STARLINK-5226,2022-136F,2026-06-03T15:03:40.588704,15.08831570,.00013419,53.1847,317.8924,80.1041,280.0102,0,U,54056,999,19982,.48725E-7,-.287E-5,0
STARLINK-5167,2022-136H,2026-06-03T14:26:38.613984,15.08839879,.00011704,53.1823,318.4322,55.7821,304.3281,0,U,54058,999,19981,.14895003E-3,.2083E-4,0
STARLINK-5173,2022-136J,2026-06-03T14:31:57.870624,15.08835318,.00011009,53.1822,318.4532,91.1126,268.9992,0,U,54059,999,19981,.1096467E-3,.1457E-4,0
STARLINK-5169,2022-136K,2026-06-03T15:07:39.416448,15.08839348,.00016857,53.1850,287.9476,65.4209,294.6958,0,U,54060,999,20024,.27931997E-4,.156E-5,0
