STARLINK-5132           
1 54007U 22125AV  26154.31199309  .00000131  00000+0  26307-4 0  9997
2 54007  53.1823 189.3675 0001399  94.2287 265.8865 15.08835036202398
STARLINK-5145           
1 54008U 22125AW  26154.24299892 -.00000353  00000+0 -40625-5 0  9996
2 54008  53.1829 179.6782 0001279 100.0819 260.0317 15.08831400202525
STARLINK-5099           
1 54009U 22125AX  26154.70575291 -.00000145  00000+0  89993-5 0  9997
2 54009  53.1815 187.5739 0001495  40.2898 319.8204 15.08832280202450
STARLINK-5127           
1 54010U 22125AY  26154.30188353  .00001380  00000+0  10484-3 0  9992
2 54010  53.1811 179.3394 0001202  63.4094 296.7020 15.08824990202532
STARLINK-5124           
1 54011U 22125AZ  26154.29089312  .00000545  00000+0  52322-4 0  9996
2 54011  53.1821 179.9672 0001156  76.8800 283.2321 15.08837015202526
STARLINK-5126           
1 54012U 22125BA  26154.59630174 -.00000070  00000+0  13658-4 0  9991
2 54012  53.1842 178.3276 0001104  94.8174 265.2944 15.08837429202575
STARLINK-5098           
1 54013U 22125BB  26154.73615952  .00003265  00000+0  22311-3 0  9998
2 54013  53.1856 177.7802 0002412  30.1169 329.9961 15.08850760202591
STARLINK-5055           
1 54015U 22125BD  26154.33503569 -.00001540  00000+0 -78695-4 0  9999
2 54015  53.2158 179.5582 0001230  62.9963 297.1155 15.08826802202531
CENTISPACE-1 S5         
1 54020U 22126A   26154.89724464  .00001009  00000+0  23208-3 0  9993
2 54020  54.9992 266.1415 0014063  47.6444 312.5738 14.62991305195092
CENTISPACE-1 S6         
1 54021U 22126B   26154.88385988  .00000784  00000+0  19126-3 0  9990
2 54021  54.9995 267.9986 0015909  47.1583 313.0745 14.62273239195056
OTB-3-GAZELLE           
1 54023U 22127A   26154.53533292  .00000179  00000+0  66776-4 0  9990
2 54023  98.3939 146.4479 0012137 226.2829 133.7356 14.42669292192394
GALAXY 33 (G-33)        
1 54026U 22128A   26154.68317317  .00000091  00000+0  00000+0 0  9994
2 54026   0.0123  21.6992 0002056  53.4188 289.9794  1.00272978 13600
GALAXY 34 (G-34)        
1 54027U 22128B   26154.68403984  .00000000  00000+0  00000+0 0  9991
2 54027   0.0239 343.8859 0002093 100.1369 285.3811  1.00275256 13772
ASO-S                   
1 54029U 22129A   26154.88560666  .00000258  00000+0  74666-4 0  9996
2 54029  98.2747 160.1567 0015359 130.2455 230.0086 14.52054904193497
COSMOS 2559 [GLONASS-K] 
1 54031U 22130A   26151.97369020 -.00000061  00000+0  00000+0 0  9998
2 54031  64.2818 315.1401 0012220 176.8765 183.1177  2.13101759 28340
ANGOSAT 2               
1 54033U 22131A   26154.57147179  .00000147  00000+0  00000+0 0  9993
2 54033   0.0320  77.4861 0001675  43.8281 359.4453  1.00272126 13345
HJ-2E                   
1 54035U 22132A   26154.94062170  .00008872  00000+0  38773-3 0  9999
2 54035  97.3798 159.5580 0022084  59.3504 300.9906 15.22104481202400
YAOGAN-36 02A           
1 54042U 22133A   26153.49731198  .00001679  00000+0  70178-4 0  9994
2 54042  35.0057 212.1444 0026340  65.2478 295.0974 15.23217685202518
YAOGAN-36 02B           
1 54043U 22133B   26154.54864385  .00009954  00000+0  31214-3 0  9998
2 54043  34.9953 197.2943 0004081 309.9153  50.1205 15.32260490202750
YAOGAN-36 02C           
1 54045U 22133D   26154.44831630  .00042495  00000+0  79234-3 0  9997
2 54045  34.9879 163.4242 0006041 103.7311 256.4084 15.47731623203091
EUTELSAT HOTBIRD 13F    
1 54048U 22134A   26154.92600536  .00000099  00000+0  00000+0 0  9998
2 54048   0.0491 290.5613 0001979  76.3440 231.8477  1.00271002 13248
STARLINK-5195           
1 54051U 22136A   26154.62656381  .00000660  00000+0  60747-4 0  9993
2 54051  53.2190 318.6084 0001050  94.6063 265.5049 15.08019243199813
STARLINK-5189           
1 54052U 22136B   26154.64228318 -.00001578  00000+0 -81012-4 0  9990
2 54052  53.1834 278.0517 0001317 120.2419 239.8703 15.08863439200385
STARLINK-5176           
1 54053U 22136C   26154.62026688 -.00000155  00000+0  83820-5 0  9994
2 54053  53.1833 318.5458 0001277  76.6170 283.4964 15.08834156199815
STARLINK-5163           
1 54054U 22136D   26154.61288934 -.00000095  00000+0  12125-4 0  9990
2 54054  53.2035 318.5109 0001333  95.4017 264.7127 15.08843879199811
STARLINK-5158           
1 54055U 22136E   26154.94783890 -.00010629  00000+0 -65194-3 0  9996
2 54055  53.1829 317.0332 0001998 145.5867 214.5255 15.08767331199869
STARLINK-5226           
1 54056U 22136F   26154.62755311 -.00000287  00000+0  48725-7 0  9992
2 54056  53.1847 317.8924 0001341  80.1041 280.0102 15.08831570199827
STARLINK-5167           
1 54058U 22136H   26154.60183581  .00002083  00000+0  14895-3 0  9998
2 54058  53.1823 318.4322 0001170  55.7821 304.3281 15.08839879199813
STARLINK-5173           
1 54059U 22136J   26154.60553091  .00001457  00000+0  10965-3 0  9994
2 54059  53.1822 318.4532 0001100  91.1126 268.9992 15.08835318199819
STARLINK-5169           
1 54060U 22136K   26154.63031732  .00000156  00000+0  27932-4 0  9990
2 54060  53.1850 287.9476 0001685  65.4209 294.6958 15.08839348200248
